start=new Date('2022-12-20T00:00:00.000Z').valueOf();
sats=[{"OBJECT_ID":"2022-005AP","SEMIMAJOR_AXIS":"6917.873","EPHEMERIS_TYPE":"0","MEAN_ANOMALY":"318.8491","COUNTRY_CODE":"US","TLE_LINE2":"2 51141  53.2147 177.5680 0003089  41.2734 318.8491 15.08842284 52341","CLASSIFICATION_TYPE":"U","MEAN_MOTION_DOT":"0.00000464","PERIAPSIS":"537.601","GP_ID":"220944292","FILE":"3711728","MEAN_MOTION":"15.08842284","ECCENTRICITY":"0.00030890","DECAY_DATE":null,"CENTER_NAME":"EARTH","REV_AT_EPOCH":"5234","LAUNCH_DATE":"2022-01-19","MEAN_MOTION_DDOT":"0.0000000000000","REF_FRAME":"TEME","RA_OF_ASC_NODE":"177.5680","TIME_SYSTEM":"UTC","NORAD_CAT_ID":"51141","APOAPSIS":"541.875","EPOCH":"2022-12-19T20:58:58.327680","ARG_OF_PERICENTER":"41.2734","BSTAR":"0.00004727100000","OBJECT_TYPE":"PAYLOAD","PERIOD":"95.437","MEAN_ELEMENT_THEORY":"SGP4","OBJECT_NAME":"STARLINK-3179","RCS_SIZE":"LARGE","ELEMENT_SET_NO":"999","INCLINATION":"53.2147","TLE_LINE1":"1 51141U 22005AP  22353.87428620  .00000464  00000-0  47271-4 0  9992","SITE":"AFETR"},{"APOAPSIS":"541.764","NORAD_CAT_ID":"51142","ARG_OF_PERICENTER":"44.6033","EPOCH":"2022-12-19T19:15:42.257088","OBJECT_TYPE":"PAYLOAD","BSTAR":"0.00018550000000","INCLINATION":"53.2143","TLE_LINE1":"1 51142U 22005AQ  22353.80257242  .00002665  00000-0  18550-3 0  9998","SITE":"AFETR","MEAN_ELEMENT_THEORY":"SGP4","OBJECT_NAME":"STARLINK-3369","PERIOD":"95.437","ELEMENT_SET_NO":"999","RCS_SIZE":"LARGE","CLASSIFICATION_TYPE":"U","GP_ID":"220944677","FILE":"3711756","PERIAPSIS":"537.705","MEAN_MOTION":"15.08843600","MEAN_MOTION_DOT":"0.00002665","ECCENTRICITY":"0.00029340","DECAY_DATE":null,"SEMIMAJOR_AXIS":"6917.869","OBJECT_ID":"2022-005AQ","EPHEMERIS_TYPE":"0","TLE_LINE2":"2 51142  53.2143 167.8923 0002934  44.6033 315.5195 15.08843600 52503","COUNTRY_CODE":"US","MEAN_ANOMALY":"315.5195","TIME_SYSTEM":"UTC","REV_AT_EPOCH":"5250","CENTER_NAME":"EARTH","LAUNCH_DATE":"2022-01-19","RA_OF_ASC_NODE":"167.8923","MEAN_MOTION_DDOT":"0.0000000000000","REF_FRAME":"TEME"},{"MEAN_MOTION_DDOT":"0.0000000000000","RA_OF_ASC_NODE":"187.6377","REF_FRAME":"TEME","LAUNCH_DATE":"2022-01-19","REV_AT_EPOCH":"5219","CENTER_NAME":"EARTH","TIME_SYSTEM":"UTC","COUNTRY_CODE":"US","MEAN_ANOMALY":"316.3991","TLE_LINE2":"2 51143  53.2144 187.6377 0002414  43.7192 316.3991 15.08826842 52194","EPHEMERIS_TYPE":"0","OBJECT_ID":"2022-005AR","SEMIMAJOR_AXIS":"6917.921","DECAY_DATE":null,"ECCENTRICITY":"0.00024140","MEAN_MOTION_DOT":"0.00002339","GP_ID":"220944678","FILE":"3711756","MEAN_MOTION":"15.08826842","PERIAPSIS":"538.116","CLASSIFICATION_TYPE":"U","RCS_SIZE":"LARGE","ELEMENT_SET_NO":"999","PERIOD":"95.438","OBJECT_NAME":"STARLINK-3184","MEAN_ELEMENT_THEORY":"SGP4","TLE_LINE1":"1 51143U 22005AR  22353.85866752  .00002339  00000-0  16510-3 0  9998","SITE":"AFETR","INCLINATION":"53.2144","OBJECT_TYPE":"PAYLOAD","BSTAR":"0.00016510000000","EPOCH":"2022-12-19T20:36:28.873728","ARG_OF_PERICENTER":"43.7192","APOAPSIS":"541.456","NORAD_CAT_ID":"51143"},{"OBJECT_TYPE":"PAYLOAD","BSTAR":"0.00009927000000","EPOCH":"2022-12-19T19:28:54.668640","ARG_OF_PERICENTER":"29.0694","NORAD_CAT_ID":"51144","APOAPSIS":"541.872","RCS_SIZE":"LARGE","ELEMENT_SET_NO":"999","PERIOD":"95.438","MEAN_ELEMENT_THEORY":"SGP4","OBJECT_NAME":"STARLINK-3185","TLE_LINE1":"1 51144U 22005AS  22353.81174385  .00001291  00000-0  99270-4 0  9990","SITE":"AFETR","INCLINATION":"53.2160","COUNTRY_CODE":"US","MEAN_ANOMALY":"331.0466","TLE_LINE2":"2 51144  53.2160 177.8582 0003029  29.0694 331.0466 15.08829879 51226","EPHEMERIS_TYPE":"0","OBJECT_ID":"2022-005AS","SEMIMAJOR_AXIS":"6917.911","DECAY_DATE":null,"ECCENTRICITY":"0.00030290","MEAN_MOTION_DOT":"0.00001291","PERIAPSIS":"537.681","GP_ID":"220968412","FILE":"3711774","MEAN_MOTION":"15.08829879","CLASSIFICATION_TYPE":"U","MEAN_MOTION_DDOT":"0.0000000000000","RA_OF_ASC_NODE":"177.8582","REF_FRAME":"TEME","LAUNCH_DATE":"2022-01-19","REV_AT_EPOCH":"5122","CENTER_NAME":"EARTH","TIME_SYSTEM":"UTC"},{"OBJECT_TYPE":"PAYLOAD","BSTAR":"0.00010495000000","APOAPSIS":"540.795","NORAD_CAT_ID":"51145","ARG_OF_PERICENTER":"58.2407","EPOCH":"2022-12-19T18:55:46.726464","MEAN_ELEMENT_THEORY":"SGP4","OBJECT_NAME":"STARLINK-3365","PERIOD":"95.437","ELEMENT_SET_NO":"999","RCS_SIZE":"MEDIUM","SITE":"AFETR","TLE_LINE1":"1 51145U 22005AT  22353.78873526  .00001383  00000-0  10495-3 0  9993","INCLINATION":"53.2148","TLE_LINE2":"2 51145  53.2148 187.9533 0001526  58.2407 301.8734 15.08842051 51070","MEAN_ANOMALY":"301.8734","COUNTRY_CODE":"US","SEMIMAJOR_AXIS":"6917.874","OBJECT_ID":"2022-005AT","EPHEMERIS_TYPE":"0","ECCENTRICITY":"0.00015260","DECAY_DATE":null,"CLASSIFICATION_TYPE":"U","PERIAPSIS":"538.683","GP_ID":"220969663","FILE":"3711774","MEAN_MOTION":"15.08842051","MEAN_MOTION_DOT":"0.00001383","LAUNCH_DATE":"2022-01-19","MEAN_MOTION_DDOT":"0.0000000000000","RA_OF_ASC_NODE":"187.9533","REF_FRAME":"TEME","CENTER_NAME":"EARTH","REV_AT_EPOCH":"5107","TIME_SYSTEM":"UTC"},{"OBJECT_TYPE":"PAYLOAD","BSTAR":"0.00002763100000","NORAD_CAT_ID":"51146","APOAPSIS":"541.531","EPOCH":"2022-12-19T19:39:29.838240","ARG_OF_PERICENTER":"38.4232","TLE_LINE1":"1 51146U 22005AU  22353.81909535  .00000151  00000-0  27631-4 0  9991","SITE":"AFETR","INCLINATION":"53.2161","PERIOD":"95.438","MEAN_ELEMENT_THEORY":"SGP4","OBJECT_NAME":"STARLINK-3354","RCS_SIZE":"LARGE","ELEMENT_SET_NO":"999","ECCENTRICITY":"0.00025570","DECAY_DATE":null,"CLASSIFICATION_TYPE":"U","MEAN_MOTION_DOT":"0.00000151","GP_ID":"220969409","MEAN_MOTION":"15.08834376","FILE":"3711774","PERIAPSIS":"537.994","MEAN_ANOMALY":"321.6942","COUNTRY_CODE":"US","TLE_LINE2":"2 51146  53.2161 177.8196 0002557  38.4232 321.6942 15.08834376 51218","OBJECT_ID":"2022-005AU","SEMIMAJOR_AXIS":"6917.898","EPHEMERIS_TYPE":"0","TIME_SYSTEM":"UTC","LAUNCH_DATE":"2022-01-19","RA_OF_ASC_NODE":"177.8196","MEAN_MOTION_DDOT":"0.0000000000000","REF_FRAME":"TEME","CENTER_NAME":"EARTH","REV_AT_EPOCH":"5121"},{"TIME_SYSTEM":"UTC","RA_OF_ASC_NODE":"187.9236","MEAN_MOTION_DDOT":"0.0000000000000","REF_FRAME":"TEME","LAUNCH_DATE":"2022-01-19","CENTER_NAME":"EARTH","REV_AT_EPOCH":"5107","DECAY_DATE":null,"ECCENTRICITY":"0.00026500","MEAN_MOTION_DOT":"0.00002502","GP_ID":"220968663","FILE":"3711774","PERIAPSIS":"537.942","MEAN_MOTION":"15.08830282","CLASSIFICATION_TYPE":"U","MEAN_ANOMALY":"331.3177","COUNTRY_CODE":"US","TLE_LINE2":"2 51147  53.2141 187.9236 0002650  28.7961 331.3177 15.08830282 51073","EPHEMERIS_TYPE":"0","OBJECT_ID":"2022-005AV","SEMIMAJOR_AXIS":"6917.910","TLE_LINE1":"1 51147U 22005AV  22353.79608545  .00002502  00000-0  17531-3 0  9995","SITE":"AFETR","INCLINATION":"53.2141","RCS_SIZE":"LARGE","ELEMENT_SET_NO":"999","PERIOD":"95.438","MEAN_ELEMENT_THEORY":"SGP4","OBJECT_NAME":"STARLINK-3352","BSTAR":"0.00017531000000","OBJECT_TYPE":"PAYLOAD","EPOCH":"2022-12-19T19:06:21.782880","ARG_OF_PERICENTER":"28.7961","APOAPSIS":"541.608","NORAD_CAT_ID":"51147"},{"ECCENTRICITY":"0.00028160","DECAY_DATE":null,"CLASSIFICATION_TYPE":"U","PERIAPSIS":"537.812","GP_ID":"220968913","FILE":"3711774","MEAN_MOTION":"15.08835069","MEAN_MOTION_DOT":"0.00001912","TLE_LINE2":"2 51148  53.2164 187.6680 0002816  35.3415 324.7763 15.08835069 51087","MEAN_ANOMALY":"324.7763","COUNTRY_CODE":"US","SEMIMAJOR_AXIS":"6917.895","OBJECT_ID":"2022-005AW","EPHEMERIS_TYPE":"0","TIME_SYSTEM":"UTC","LAUNCH_DATE":"2022-01-19","MEAN_MOTION_DDOT":"0.0000000000000","RA_OF_ASC_NODE":"187.6680","REF_FRAME":"TEME","REV_AT_EPOCH":"5108","CENTER_NAME":"EARTH","OBJECT_TYPE":"PAYLOAD","BSTAR":"0.00013822000000","APOAPSIS":"541.709","NORAD_CAT_ID":"51148","ARG_OF_PERICENTER":"35.3415","EPOCH":"2022-12-19T20:25:51.967488","TLE_LINE1":"1 51148U 22005AW  22353.85129592  .00001912  00000-0  13822-3 0  9996","SITE":"AFETR","INCLINATION":"53.2164","MEAN_ELEMENT_THEORY":"SGP4","OBJECT_NAME":"STARLINK-3359","PERIOD":"95.438","ELEMENT_SET_NO":"999","RCS_SIZE":"LARGE"},{"COUNTRY_CODE":"US","MEAN_ANOMALY":"320.9285","TLE_LINE2":"2 51149  53.2160 187.6747 0002762  39.1907 320.9285 15.08841376 51081","EPHEMERIS_TYPE":"0","OBJECT_ID":"2022-005AX","SEMIMAJOR_AXIS":"6917.876","DECAY_DATE":null,"ECCENTRICITY":"0.00027620","MEAN_MOTION_DOT":"0.00001882","GP_ID":"220969163","FILE":"3711774","MEAN_MOTION":"15.08841376","PERIAPSIS":"537.830","CLASSIFICATION_TYPE":"U","REF_FRAME":"TEME","MEAN_MOTION_DDOT":"0.0000000000000","RA_OF_ASC_NODE":"187.6747","LAUNCH_DATE":"2022-01-19","REV_AT_EPOCH":"5108","CENTER_NAME":"EARTH","TIME_SYSTEM":"UTC","OBJECT_TYPE":"PAYLOAD","BSTAR":"0.00013636000000","EPOCH":"2022-12-19T20:20:33.052992","ARG_OF_PERICENTER":"39.1907","NORAD_CAT_ID":"51149","APOAPSIS":"541.652","RCS_SIZE":"LARGE","ELEMENT_SET_NO":"999","PERIOD":"95.437","MEAN_ELEMENT_THEORY":"SGP4","OBJECT_NAME":"STARLINK-3360","TLE_LINE1":"1 51149U 22005AX  22353.84760478  .00001882  00000-0  13636-3 0  9999","SITE":"AFETR","INCLINATION":"53.2160"},{"TLE_LINE2":"2 51150  53.2167 177.8877 0002380  48.3980 311.7216 15.08845400 51224","MEAN_ANOMALY":"311.7216","COUNTRY_CODE":"US","EPHEMERIS_TYPE":"0","SEMIMAJOR_AXIS":"6917.864","OBJECT_ID":"2022-005AY","DECAY_DATE":null,"ECCENTRICITY":"0.00023800","PERIAPSIS":"538.082","GP_ID":"220969910","FILE":"3711774","MEAN_MOTION":"15.08845400","MEAN_MOTION_DOT":"0.00002381","CLASSIFICATION_TYPE":"U","MEAN_MOTION_DDOT":"0.0000000000000","RA_OF_ASC_NODE":"177.8877","REF_FRAME":"TEME","LAUNCH_DATE":"2022-01-19","CENTER_NAME":"EARTH","REV_AT_EPOCH":"5122","TIME_SYSTEM":"UTC","OBJECT_TYPE":"PAYLOAD","BSTAR":"0.00016763000000","ARG_OF_PERICENTER":"48.3980","EPOCH":"2022-12-19T19:18:17.130816","APOAPSIS":"541.375","NORAD_CAT_ID":"51150","ELEMENT_SET_NO":"999","RCS_SIZE":"LARGE","MEAN_ELEMENT_THEORY":"SGP4","OBJECT_NAME":"STARLINK-3357","PERIOD":"95.437","SITE":"AFETR","TLE_LINE1":"1 51150U 22005AY  22353.80436494  .00002381  00000-0  16763-3 0  9994","INCLINATION":"53.2167"}];
